CCSDS_OMM_VERS = 2.0
CREATION_DATE  = 
ORIGINATOR     = 

OBJECT_NAME    = COSMOS 2242
OBJECT_ID      = 1993-024A
CENTER_NAME    = EARTH
REF_FRAME      = TEME
TIME_SYSTEM    = UTC
MEAN_ELEMENT_THEORY = SGP/SGP4

EPOCH          = 2026-03-11T00:57:37.768608
MEAN_MOTION    = 14.96555226
ECCENTRICITY   = .0015104
INCLINATION    = 82.5156
RA_OF_ASC_NODE = 265.4245
ARG_OF_PERICENTER = 303.9391
MEAN_ANOMALY   = 56.0394

EPHEMERIS_TYPE = 0
CLASSIFICATION_TYPE = U
NORAD_CAT_ID   = 22626
ELEMENT_SET_NO = 999
REV_AT_EPOCH   = 78059
BSTAR          = .17671E-3
MEAN_MOTION_DOT = .2039E-4
MEAN_MOTION_DDOT = 0

CCSDS_OMM_VERS = 2.0
CREATION_DATE  = 
ORIGINATOR     = 

OBJECT_NAME    = SL-16 R/B
OBJECT_ID      = 1993-059B
CENTER_NAME    = EARTH
REF_FRAME      = TEME
TIME_SYSTEM    = UTC
MEAN_ELEMENT_THEORY = SGP/SGP4

EPOCH          = 2026-03-11T04:06:01.695744
MEAN_MOTION    = 14.17231414
ECCENTRICITY   = .0018468
INCLINATION    = 70.9928
RA_OF_ASC_NODE = 8.0024
ARG_OF_PERICENTER = 214.4398
MEAN_ANOMALY   = 145.5531

EPHEMERIS_TYPE = 0
CLASSIFICATION_TYPE = U
NORAD_CAT_ID   = 22803
ELEMENT_SET_NO = 999
REV_AT_EPOCH   = 67974
BSTAR          = -.35844E-4
MEAN_MOTION_DOT = -.121E-5
MEAN_MOTION_DDOT = 0

CCSDS_OMM_VERS = 2.0
CREATION_DATE  = 
ORIGINATOR     = 

OBJECT_NAME    = ARIANE 40 R/B
OBJECT_ID      = 1993-061H
CENTER_NAME    = EARTH
REF_FRAME      = TEME
TIME_SYSTEM    = UTC
MEAN_ELEMENT_THEORY = SGP/SGP4

EPOCH          = 2026-03-11T03:57:37.200096
MEAN_MOTION    = 14.32861856
ECCENTRICITY   = .0009571
INCLINATION    = 98.4912
RA_OF_ASC_NODE = 139.0235
ARG_OF_PERICENTER = 280.2350
MEAN_ANOMALY   = 79.7755

EPHEMERIS_TYPE = 0
CLASSIFICATION_TYPE = U
NORAD_CAT_ID   = 22830
ELEMENT_SET_NO = 999
REV_AT_EPOCH   = 69431
BSTAR          = .1012E-3
MEAN_MOTION_DOT = .233E-5
MEAN_MOTION_DDOT = 0

CCSDS_OMM_VERS = 2.0
CREATION_DATE  = 
ORIGINATOR     = 

OBJECT_NAME    = COSMOS 2278
OBJECT_ID      = 1994-023A
CENTER_NAME    = EARTH
REF_FRAME      = TEME
TIME_SYSTEM    = UTC
MEAN_ELEMENT_THEORY = SGP/SGP4

EPOCH          = 2026-03-11T05:23:04.200288
MEAN_MOTION    = 14.14379343
ECCENTRICITY   = .0008154
INCLINATION    = 71.0553
RA_OF_ASC_NODE = 171.8870
ARG_OF_PERICENTER = 10.1433
MEAN_ANOMALY   = 349.9852

EPHEMERIS_TYPE = 0
CLASSIFICATION_TYPE = U
NORAD_CAT_ID   = 23087
ELEMENT_SET_NO = 999
REV_AT_EPOCH   = 64502
BSTAR          = .51604E-4
MEAN_MOTION_DOT = .52E-6
MEAN_MOTION_DDOT = 0

CCSDS_OMM_VERS = 2.0
CREATION_DATE  = 
ORIGINATOR     = 

OBJECT_NAME    = SL-16 R/B
OBJECT_ID      = 1994-023B
CENTER_NAME    = EARTH
REF_FRAME      = TEME
TIME_SYSTEM    = UTC
MEAN_ELEMENT_THEORY = SGP/SGP4

EPOCH          = 2026-03-11T04:47:11.271264
MEAN_MOTION    = 14.15011304
ECCENTRICITY   = .00057
INCLINATION    = 70.9985
RA_OF_ASC_NODE = 67.7161
ARG_OF_PERICENTER = 284.1015
MEAN_ANOMALY   = 75.9474

EPHEMERIS_TYPE = 0
CLASSIFICATION_TYPE = U
NORAD_CAT_ID   = 23088
ELEMENT_SET_NO = 999
REV_AT_EPOCH   = 64630
BSTAR          = -.98582E-4
MEAN_MOTION_DOT = -.239E-5
MEAN_MOTION_DDOT = 0

CCSDS_OMM_VERS = 2.0
CREATION_DATE  = 
ORIGINATOR     = 

OBJECT_NAME    = SL-16 R/B
OBJECT_ID      = 1994-074B
CENTER_NAME    = EARTH
REF_FRAME      = TEME
TIME_SYSTEM    = UTC
MEAN_ELEMENT_THEORY = SGP/SGP4

EPOCH          = 2026-03-11T01:43:14.422080
MEAN_MOTION    = 14.79409735
ECCENTRICITY   = .0005885
INCLINATION    = 97.7108
RA_OF_ASC_NODE = 100.8334
ARG_OF_PERICENTER = 205.2630
MEAN_ANOMALY   = 179.6850

EPHEMERIS_TYPE = 0
CLASSIFICATION_TYPE = U
NORAD_CAT_ID   = 23343
ELEMENT_SET_NO = 999
REV_AT_EPOCH   = 68745
BSTAR          = .81763E-4
MEAN_MOTION_DOT = .561E-5
MEAN_MOTION_DDOT = 0

CCSDS_OMM_VERS = 2.0
CREATION_DATE  = 
ORIGINATOR     = 

OBJECT_NAME    = SL-16 R/B
OBJECT_ID      = 1994-077B
CENTER_NAME    = EARTH
REF_FRAME      = TEME
TIME_SYSTEM    = UTC
MEAN_ELEMENT_THEORY = SGP/SGP4

EPOCH          = 2026-03-11T04:19:53.420160
MEAN_MOTION    = 14.15561390
ECCENTRICITY   = .0003016
INCLINATION    = 70.9853
RA_OF_ASC_NODE = 349.3531
ARG_OF_PERICENTER = 210.2295
MEAN_ANOMALY   = 149.8654

EPHEMERIS_TYPE = 0
CLASSIFICATION_TYPE = U
NORAD_CAT_ID   = 23405
ELEMENT_SET_NO = 999
REV_AT_EPOCH   = 61644
BSTAR          = .49476E-4
MEAN_MOTION_DOT = .49E-6
MEAN_MOTION_DDOT = 0

CCSDS_OMM_VERS = 2.0
CREATION_DATE  = 
ORIGINATOR     = 

OBJECT_NAME    = ARIANE 40+ R/B
OBJECT_ID      = 1995-021B
CENTER_NAME    = EARTH
REF_FRAME      = TEME
TIME_SYSTEM    = UTC
MEAN_ELEMENT_THEORY = SGP/SGP4

EPOCH          = 2026-03-11T04:46:32.541600
MEAN_MOTION    = 14.39773709
ECCENTRICITY   = .0007684
INCLINATION    = 98.4493
RA_OF_ASC_NODE = 141.6609
ARG_OF_PERICENTER = 132.4745
MEAN_ANOMALY   = 248.5694

EPHEMERIS_TYPE = 0
CLASSIFICATION_TYPE = U
NORAD_CAT_ID   = 23561
ELEMENT_SET_NO = 999
REV_AT_EPOCH   = 61946
BSTAR          = .12334E-3
MEAN_MOTION_DOT = .343E-5
MEAN_MOTION_DDOT = 0

CCSDS_OMM_VERS = 2.0
CREATION_DATE  = 
ORIGINATOR     = 

OBJECT_NAME    = SL-16 R/B
OBJECT_ID      = 1995-058B
CENTER_NAME    = EARTH
REF_FRAME      = TEME
TIME_SYSTEM    = UTC
MEAN_ELEMENT_THEORY = SGP/SGP4

EPOCH          = 2026-03-10T16:37:44.444064
MEAN_MOTION    = 14.15496012
ECCENTRICITY   = .0010774
INCLINATION    = 71.0222
RA_OF_ASC_NODE = 178.1490
ARG_OF_PERICENTER = 123.8863
MEAN_ANOMALY   = 236.3286

EPHEMERIS_TYPE = 0
CLASSIFICATION_TYPE = U
NORAD_CAT_ID   = 23705
ELEMENT_SET_NO = 999
REV_AT_EPOCH   = 56799
BSTAR          = .19608922E-3
MEAN_MOTION_DOT = .336E-5
MEAN_MOTION_DDOT = 0

CCSDS_OMM_VERS = 2.0
CREATION_DATE  = 
ORIGINATOR     = 

OBJECT_NAME    = SL-16 R/B
OBJECT_ID      = 1996-051B
CENTER_NAME    = EARTH
REF_FRAME      = TEME
TIME_SYSTEM    = UTC
MEAN_ELEMENT_THEORY = SGP/SGP4

EPOCH          = 2026-03-11T05:28:46.862688
MEAN_MOTION    = 14.12416098
ECCENTRICITY   = .0014976
INCLINATION    = 70.7603
RA_OF_ASC_NODE = 171.9820
ARG_OF_PERICENTER = 145.7527
MEAN_ANOMALY   = 214.4561

EPHEMERIS_TYPE = 0
CLASSIFICATION_TYPE = U
NORAD_CAT_ID   = 24298
ELEMENT_SET_NO = 999
REV_AT_EPOCH   = 52186
BSTAR          = .75497E-4
MEAN_MOTION_DOT = .9E-6
MEAN_MOTION_DDOT = 0

CCSDS_OMM_VERS = 2.0
CREATION_DATE  = 
ORIGINATOR     = 

OBJECT_NAME    = ORBVIEW 2 (SEASTAR)
OBJECT_ID      = 1997-037A
CENTER_NAME    = EARTH
REF_FRAME      = TEME
TIME_SYSTEM    = UTC
MEAN_ELEMENT_THEORY = SGP/SGP4

EPOCH          = 2026-03-11T03:51:02.220768
MEAN_MOTION    = 14.35496134
ECCENTRICITY   = .0003062
INCLINATION    = 98.8571
RA_OF_ASC_NODE = 234.5112
ARG_OF_PERICENTER = 68.9544
MEAN_ANOMALY   = 291.1968

EPHEMERIS_TYPE = 0
CLASSIFICATION_TYPE = U
NORAD_CAT_ID   = 24883
ELEMENT_SET_NO = 999
REV_AT_EPOCH   = 50868
BSTAR          = .14128E-3
MEAN_MOTION_DOT = .36E-5
MEAN_MOTION_DDOT = 0

CCSDS_OMM_VERS = 2.0
CREATION_DATE  = 
ORIGINATOR     = 

OBJECT_NAME    = SL-16 R/B
OBJECT_ID      = 1998-043G
CENTER_NAME    = EARTH
REF_FRAME      = TEME
TIME_SYSTEM    = UTC
MEAN_ELEMENT_THEORY = SGP/SGP4

EPOCH          = 2026-03-10T20:30:03.917664
MEAN_MOTION    = 14.26050139
ECCENTRICITY   = .00101619
INCLINATION    = 98.8253
RA_OF_ASC_NODE = 23.2258
ARG_OF_PERICENTER = 17.2309
MEAN_ANOMALY   = 342.9213

EPHEMERIS_TYPE = 0
CLASSIFICATION_TYPE = U
NORAD_CAT_ID   = 25400
ELEMENT_SET_NO = 999
REV_AT_EPOCH   = 43915
BSTAR          = .60287304E-4
MEAN_MOTION_DOT = .99E-6
MEAN_MOTION_DDOT = 0

